satname,norad_id,inclination_deg,eccentricity,mean_motion_rev_per_day,perigee_km,apogee_km,l1,l2
STARLINK-1273,45367,53.0526,0.0001401,15.06399684,546.2422849642817,548.1827679015887,1 45367U 20019H   25283.83650718  .00001271  00000+0  10423-3 0  9998,2 45367  53.0526 119.3354 0001401  94.0820 266.0329 15.06399684307147
STARLINK-1276,45368,53.054,0.0001264,15.06396847,546.3458561668276,548.0965867252089,1 45368U 20019J   25283.80701818  .00000991  00000+0  85384-4 0  9991,2 45368  53.0540 119.4692 0001264  90.2621 269.8512 15.06396847307147
STARLINK-1277,45369,53.0539,0.0001521,15.06399466,546.1598488072559,548.2665403364445,1 45369U 20019K   25283.26894601  .00001048  00000+0  89242-4 0  9996,2 45369  53.0539 122.5121 0001521  90.4519 269.6644 15.06399466307056
STARLINK-1281,45370,53.0497,0.0001263,15.06400121,546.3365156146992,548.0858585667593,1 45370U 20019L   25283.53056382  .00000990  00000+0  85340-4 0  9994,2 45370  53.0497 120.7113 0001263  99.3449 260.7683 15.06400121307107
STARLINK-1300,45374,53.0542,0.0001124,15.06453033,546.27063329065,547.8274151088899,1 45374U 20019Q   25283.55263271  .00007108  00000+0  49489-3 0  9998,2 45374  53.0542 120.6079 0001124  98.0215 262.0902 15.06453033307104
STARLINK-1302,45375,53.051,0.0001359,15.06398543,546.2748679611459,548.1571789129157,1 45375U 20019R   25283.83281684  .00000409  00000+0  46363-4 0  9994,2 45375  53.0510 119.3525 0001359  92.5956 267.5189 15.06398543307147
STARLINK-1304,45376,53.0527,0.0001924,15.06343909,546.0510039699193,548.7159442483562,1 45376U 20019S   25283.85126725  .00021750  00000+0  14768-2 0  9995,2 45376  53.0527 119.2691 0001924 101.7015 258.4190 15.06343909307143
STARLINK-1305,45377,53.0524,0.0002001,15.0640091,545.823007232384,548.5945306091071,1 45377U 20019T   25283.54529862 -.00003137  00000+0 -19173-3 0  9998,2 45377  53.0524 120.6441 0002001  87.6876 272.4342 15.06400910307101
STARLINK-1319,45379,53.054,0.0001547,15.06400136,546.1397897604656,548.2824924753277,1 45379U 20019V   25283.80332927  .00000466  00000+0  50193-4 0  9991,2 45379  53.0540 119.4867 0001547  89.2669 270.8497 15.06400136307148
STARLINK-1266,45383,53.0565,0.0001365,15.0639421,546.283991010775,548.1746160116336,1 45383U 20019Z   25283.87151470 -.00000207  00000+0  49724-5 0  9998,2 45383  53.0565  99.1785 0001365  88.1851 271.9294 15.06394210307425
STARLINK-1267,45384,53.0564,0.0001547,15.0639835,546.1452627510162,548.2879671594828,1 45384U 20019AA  25283.52511808 -.00000948  00000+0 -44739-4 0  9999,2 45384  53.0564 101.3894 0001547  93.5643 266.5523 15.06398350307360
STARLINK-1272,45386,53.057,0.0001388,15.06396037,546.2624639234164,548.1849440548431,1 45386U 20019AC  25283.79779029 -.00002641  00000+0 -15849-3 0  9992,2 45386  53.0570  99.5116 0001388  88.6769 271.4379 15.06396037307411
STARLINK-1274,45387,53.0381,0.0007471,15.26792796,480.279526805547,490.5350346698242,1 45387U 20019AD  25283.85442666  .00015213  00000+0  58156-3 0  9999,2 45387  53.0381  87.6694 0007471 146.0372 214.1106 15.26792796307583
STARLINK-1280,45388,53.0536,0.0001421,15.06396536,546.2380810810009,548.2062681584275,1 45388U 20019AE  25283.58954668  .00000573  00000+0  57359-4 0  9998,2 45388  53.0536 120.4467 0001421  99.5391 260.5759 15.06396536307097
STARLINK-1283,45389,53.0539,0.0001401,15.21314533,500.910628030907,502.8384072581521,1 45389U 20019AF  25283.91670139  .02149128  00000+0  86233-1 0  9996,2 45389  53.0539  98.5918 0001401  63.3910 222.3534 15.21314533  5693
STARLINK-1284,45390,53.0537,0.0001255,15.06390097,546.3727743201316,548.1110444263841,1 45390U 20019AG  25283.47713770  .00002342  00000+0  17612-3 0  9999,2 45390  53.0537 100.9502 0001255 101.9245 258.1884 15.06390097307363
STARLINK-1292,45394,53.0517,0.0005665,15.81884233,321.3149850267055,328.9097665694844,1 45394U 20019AL  25283.91670139  .00255594  00000+0  12020-2 0  9999,2 45394  53.0517  61.2088 0005665 287.2291 287.1471 15.81884233  5970
STARLINK-1297,45395,53.0547,0.0001335,15.06399459,546.2886817720155,548.137750279695,1 45395U 20019AM  25283.77937073  .00002206  00000+0  16692-3 0  9997,2 45395  53.0547  99.5919 0001335  91.3218 268.7924 15.06399459306592
STARLINK-1307,45397,53.0549,0.0001534,15.06397389,546.1572105924351,548.2819099851322,1 45397U 20019AP  25283.77199469 -.00000059  00000+0  14962-4 0  9992,2 45397  53.0549  99.6229 0001534  92.2346 267.8819 15.06397389307239
STARLINK-1312,45398,53.0465,0.0002634,15.82278366,322.23383605048184,325.76452138943114,1 45398U 20019AQ  25283.91670139  .00327076  00000+0  14978-2 0  9992,2 45398  53.0465  60.7757 0002634 214.0336 149.0633 15.82278366  5920
STARLINK-1255,45399,53.054,0.0002809,15.06490796,544.988043005872,548.878547497744,1 45399U 20019AR  25283.73965389  .00010968  00000+0  75224-3 0  9998,2 45399  53.0540  89.7707 0002809  77.8103 282.3200 15.06490796307354
STARLINK-1259,45403,53.0451,0.0001327,15.96913625,282.10366329009685,283.87152575748314,1 45403U 20019AV  25283.91670139  .00430429  87138-4  98165-3 0  9999,2 45403  53.0451  40.8629 0001327  15.3081 234.0593 15.96913625  5903
STARLINK-1260,45404,53.0545,0.0002043,15.06397971,545.8029265571804,548.6326265188745,1 45404U 20019AW  25283.83927051  .00000843  00000+0  75519-4 0  9999,2 45404  53.0545  89.3220 0002043  89.5913 270.5310 15.06397971307274
STARLINK-1263,45405,53.0532,0.0001552,15.06404441,546.1231349625723,548.2727589301048,1 45405U 20019AX  25283.75818007  .00000476  00000+0  50842-4 0  9995,2 45405  53.0532  89.6868 0001552  91.5399 268.5767 15.06404441307260
STARLINK-1265,45406,53.0542,0.0001519,15.06391043,546.1870453733391,548.2909746051746,1 45406U 20019AY  25283.83189814 -.00000073  00000+0  14032-4 0  9997,2 45406  53.0542  89.3567 0001519  91.1581 268.9582 15.06391043307270
STARLINK-1278,45408,53.0522,0.0001363,15.06396213,546.2792379817338,548.167091162597,1 45408U 20019BA  25283.26149193 -.00000126  00000+0  10427-4 0  9995,2 45408  53.0522 121.9169 0001363  86.3436 273.7709 15.06396213306776
STARLINK-1296,45412,53.0563,0.0001119,15.06397529,546.4441838566581,547.9940785588224,1 45412U 20019BE  25283.83557815  .00000020  00000+0  20210-4 0  9990,2 45412  53.0563  89.3385 0001119  81.9763 278.1353 15.06397529307277
STARLINK-1298,45413,53.0503,0.0008075,15.47493166,418.5694585050069,429.5550102685411,1 45413U 20019BF  25283.91670139  .00137597  00000+0  25955-2 0  9994,2 45413  53.0503  71.4799 0008075 191.5057  28.7028 15.47493166  5895
STARLINK-1309,45414,53.0526,0.0001348,15.06391552,546.3039094866908,548.1709904384015,1 45414U 20019BG  25283.45224352 -.00000008  00000+0  18391-4 0  9991,2 45414  53.0526  91.0613 0001348  87.8991 272.2153 15.06391552307200
STARLINK-1316,45415,53.0546,0.0001287,15.06396646,546.3305438019015,548.1131311666704,1 45415U 20019BH  25283.74343117  .00000719  00000+0  67167-4 0  9998,2 45415  53.0546  89.7513 0001287  91.2365 268.8772 15.06396646307287
STARLINK-1318,45416,53.0534,0.0001825,15.57840063,392.6735631405072,395.145360098998,1 45416U 20019BJ  25283.66219014  .00049370  00000+0  65344-3 0  9998,2 45416  53.0534  65.5759 0001825 332.3398  27.7516 15.57840063307609
STARLINK-1286,45417,53.0518,0.0001516,15.0639774,546.1686006299833,548.2683684128897,1 45417U 20019BK  25283.84755192  .00001732  00000+0  13518-3 0  9997,2 45417  53.0518 119.2854 0001516  90.3656 269.7507 15.06397740307139
STARLINK-1308,45419,53.0527,0.0001532,15.06398136,546.1563065614118,548.2782351099959,1 45419U 20019BM  25283.84387145 -.00000560  00000+0 -18677-4 0  9990,2 45419  53.0527 119.3024 0001532  89.0740 271.0425 15.06398136306884
STARLINK-1329,45531,53.0544,0.0001265,15.06387012,546.3753029455502,548.1274262017869,1 45531U 20025A   25283.81254549 -.00000674  00000+0 -26340-4 0  9992,2 45531  53.0544  59.4410 0001265  92.1471 267.9663 15.06387012302504
STARLINK-1338,45532,53.0535,0.0001203,15.06393076,546.3996570978998,548.0659010667468,1 45532U 20025B   25283.75725036 -.00003701  00000+0 -22972-3 0  9990,2 45532  53.0535  59.6876 0001203  92.5135 267.5992 15.06393076302492
STARLINK-1350,45535,53.0761,8.73e-05,15.31599493,470.44168462786274,471.63755086532,1 45535U 20025E   25283.67335294  .00012883  00000+0  42751-3 0  9993,2 45535  53.0761  15.3350 0000873 103.3672 256.7425 15.31599493303133
STARLINK-1362,45538,53.054,0.0001176,15.06409647,546.367573917094,547.9964089438799,1 45538U 20025H   25283.78945242  .00004532  00000+0  32289-3 0  9995,2 45538  53.0540  59.2632 0001176  99.1391 260.9731 15.06409647302508
STARLINK-1368,45540,53.0546,0.0001298,15.06394174,546.3305012862111,548.1283264072454,1 45540U 20025K   25283.79411593  .00000544  00000+0  55384-4 0  9997,2 45540  53.0546  59.5232 0001298  90.9677 269.1461 15.06394174302494
STARLINK-1371,45542,53.055,0.0001405,15.06394809,546.2544539436185,548.2004813590293,1 45542U 20025M   25283.76462708 -.00000780  00000+0 -33478-4 0  9994,2 45542  53.0550  59.6559 0001405  84.3704 275.7445 15.06394809302492
STARLINK-1372,45543,53.0556,0.0001417,15.06389413,546.2626792699903,548.2253322470215,1 45543U 20025N   25283.73513816 -.00001362  00000+0 -72551-4 0  9991,2 45543  53.0556  59.7867 0001417  88.0968 272.0183 15.06389413301581
STARLINK-1373,45544,53.0579,0.0001463,15.06382308,546.2525954738676,548.2789683278515,1 45544U 20025P   25283.75357433 -.00000658  00000+0 -25275-4 0  9993,2 45544  53.0579  59.7038 0001463  69.2263 290.8883 15.06382308302499
STARLINK-1294,45551,53.0513,0.0006623,15.56292103,393.91114435625605,402.88734426546944,1 45551U 20025W   25283.58033920  .00058335  00000+0  81508-3 0  9997,2 45551  53.0513   1.2712 0006623 335.4274  24.6420 15.56292103303308
STARLINK-1323,45553,53.0308,0.0005199,16.06646283,252.61030062547434,259.5085380623077,1 45553U 20025Y   25283.56401220  .00637894  21338-3  81953-3 0  9997,2 45553  53.0308 338.1340 0005199  41.6822 318.4605 16.06646283302321
